         0.0000000       15.4904172     6797.6671578        0.0001491       51.6451000      285.2100000      136.2703000       51.6451000
      1440.0000000       15.4904595     6797.6547623        0.0001490       51.6451000      102.3705477      131.3204119       51.6451000
      2880.0000000       15.4905019     6797.6423651        0.0001490       51.6451000      279.5406117      126.3704922       51.6451000
      4320.0000000       15.4905443     6797.6299661        0.0001490       51.6451000       96.7303722      121.4205409       51.6451000
      5760.0000000       15.4905867     6797.6175653        0.0001490       51.6451000      273.9322601      116.4705581       51.6451000
      7200.0000000       15.4906291     6797.6051627        0.0001489       51.6451000       91.1512239      111.5205437       51.6451000
      8640.0000000       15.4906715     6797.5927583        0.0001489       51.6451000      268.3849570      106.5704977       51.6451000
     10080.0000000       15.4907139     6797.5803521        0.0001489       51.6451000       85.6331277      101.6204201       51.6451000
     11520.0000000       15.4907563     6797.5679441        0.0001489       51.6451000      262.8987142       96.6703110       51.6451000
     12960.0000000       15.4907987     6797.5555344        0.0001488       51.6451000       80.1761080       91.7201703       51.6451000
     14400.0000000       15.4908411     6797.5431228        0.0001488       51.6451000      257.4735433       86.7699980       51.6451000
     15840.0000000       15.4908836     6797.5307095        0.0001488       51.6451000       74.7801895       81.8197942       51.6451000
     17280.0000000       15.4909260     6797.5182943        0.0001488       51.6451000      252.1094564       76.8695588       51.6451000
     18720.0000000       15.4909685     6797.5058774        0.0001487       51.6451000       69.4453968       71.9192918       51.6451000
     20160.0000000       15.4910109     6797.4934586        0.0001487       51.6451000      246.8064654       66.9689932       51.6451000
     21600.0000000       15.4910534     6797.4810381        0.0001487       51.6451000       64.1717542       62.0186631       51.6451000
     23040.0000000       15.4910958     6797.4686158        0.0001487       51.6451000      241.5645827       57.0683014       51.6451000
     24480.0000000       15.4911383     6797.4561917        0.0001486       51.6451000       58.9592859       52.1179081       51.6451000
     25920.0000000       15.4911808     6797.4437657        0.0001486       51.6451000      236.3838209       47.1674833       51.6451000
     27360.0000000       15.4912233     6797.4313380        0.0001486       51.6451000       53.8080158       42.2170269       51.6451000
     28800.0000000       15.4912657     6797.4189085        0.0001486       51.6451000      231.2641927       37.2665389       51.6451000
     30240.0000000       15.4913082     6797.4064772        0.0001485       51.6451000       48.7179675       32.3160193       51.6451000
     31680.0000000       15.4913507     6797.3940440        0.0001485       51.6451000      226.2057117       27.3654682       51.6451000
     33120.0000000       15.4913933     6797.3816091        0.0001485       51.6451000       43.6891642       22.4148855       51.6451000
     34560.0000000       15.4914358     6797.3691724        0.0001484       51.6451000      221.2083914       17.4642712       51.6451000
     36000.0000000       15.4914783     6797.3567339        0.0001484       51.6451000       38.7216286       12.5136253       51.6451000
     37440.0000000       15.4915208     6797.3442935        0.0001484       51.6451000      216.2722461        7.5629479       51.6451000
     38880.0000000       15.4915634     6797.3318514        0.0001483       51.6451000       33.8153829        2.6122389       51.6451000
     39856.0176000       15.4915922     6797.3234172        0.0001483       51.6451000      214.2466222      359.2566799       51.6451000


 1 25544U 98067A   20357.72075082 +.00001851  00000 0  41435-4 0 0999                                                                                                                                                                                                                                                                                                                                                                                                                                                            
 2 25544  51.6450 135.6049 0001426 151.3053 316.5668 15.4921506326124                                                                                                                                                                                                                                                                                                                                                                                                                                                            

         0.0000000       15.4904319     6797.6628339        0.0001426       51.6450000      316.5668000      135.6049000       51.6450000
      1440.0000000       15.4904780     6797.6493496        0.0001425       51.6450000      133.7384319      130.6549885       51.6450000
      2880.0000000       15.4905241     6797.6358631        0.0001425       51.6450000      310.9056096      125.7050426       51.6450000
      4320.0000000       15.4905702     6797.6223745        0.0001425       51.6450000      128.1093235      120.7550624       51.6450000
      5760.0000000       15.4906163     6797.6088838        0.0001425       51.6450000      305.3108563      115.8050478       51.6450000
      7200.0000000       15.4906625     6797.5953910        0.0001424       51.6450000      122.5465688      110.8549989       51.6450000
      8640.0000000       15.4907086     6797.5818960        0.0001424       51.6450000      299.7825558      105.9049157       51.6450000
     10080.0000000       15.4907547     6797.5683990        0.0001424       51.6450000      117.0501953      100.9547981       51.6450000
     11520.0000000       15.4908009     6797.5548998        0.0001424       51.6450000      294.3207235       96.0046462       51.6450000
     12960.0000000       15.4908470     6797.5413985        0.0001423       51.6450000      111.6202306       91.0544599       51.6450000
     14400.0000000       15.4908932     6797.5278951        0.0001423       51.6450000      288.9253741       86.1042393       51.6450000
     15840.0000000       15.4909394     6797.5143895        0.0001423       51.6450000      106.2567030       81.1539843       51.6450000
     17280.0000000       15.4909855     6797.5008819        0.0001423       51.6450000      283.5965226       76.2036950       51.6450000
     18720.0000000       15.4910317     6797.4873721        0.0001422       51.6450000      100.9596409       71.2533713       51.6450000
     20160.0000000       15.4910779     6797.4738601        0.0001422       51.6450000      278.3341833       66.3030133       51.6450000
     21600.0000000       15.4911241     6797.4603461        0.0001421       51.6450000       95.7290730       61.3526209       51.6450000
     23040.0000000       15.4911703     6797.4468299        0.0001421       51.6450000      273.1383706       56.4021942       51.6450000
     24480.0000000       15.4912165     6797.4333116        0.0001421       51.6450000       90.5650281       51.4517332       51.6450000
     25920.0000000       15.4912627     6797.4197912        0.0001421       51.6450000      268.0090989       46.5012378       51.6450000
     27360.0000000       15.4913090     6797.4062686        0.0001420       51.6450000       85.4675350       41.5507081       51.6450000
     28800.0000000       15.4913552     6797.3927439        0.0001420       51.6450000      262.9463825       36.6001440       51.6450000
     30240.0000000       15.4914014     6797.3792171        0.0001420       51.6450000       80.4366227       31.6495456       51.6450000
     31680.0000000       15.4914477     6797.3656881        0.0001420       51.6450000      257.9502357       26.6989128       51.6450000
     33120.0000000       15.4914939     6797.3521570        0.0001419       51.6450000       75.4723201       21.7482457       51.6450000
     34560.0000000       15.4915402     6797.3386238        0.0001419       51.6450000      253.0206733       16.7975442       51.6450000
     36000.0000000       15.4915865     6797.3250885        0.0001419       51.6450000       70.5746559       11.8468084       51.6450000
     37440.0000000       15.4916328     6797.3115510        0.0001419       51.6450000      248.1577099        6.8960382       51.6450000
     38880.0000000       15.4916790     6797.2980113        0.0001418       51.6450000       65.7436586        1.9452337       51.6450000
     39662.3807712       15.4917042     6797.2906541        0.0001418       51.6450000      216.1787805      359.2553483       51.6450000

